[{"OBJECT_NAME":"STARLINK-35989","OBJECT_ID":"2025-278AE","EPOCH":"2026-03-09T04:50:31.157664","MEAN_MOTION":15.27588589,"ECCENTRICITY":0.00015847,"INCLINATION":43.0011,"RA_OF_ASC_NODE":117.1875,"ARG_OF_PERICENTER":275.3817,"MEAN_ANOMALY":84.6854,"EPHEMERIS_TYPE":0,"CLASSIFICATION_TYPE":"U","NORAD_CAT_ID":66819,"ELEMENT_SET_NO":999,"REV_AT_EPOCH":1513,"BSTAR":0.0011589326,"MEAN_MOTION_DOT":0.00031775,"MEAN_MOTION_DDOT":0},{"OBJECT_NAME":"KUIPER-00180","OBJECT_ID":"2026-030E","EPOCH":"2026-03-09T22:29:40.634304","MEAN_MOTION":15.31865817,"ECCENTRICITY":0.00157227,"INCLINATION":51.8823,"RA_OF_ASC_NODE":218.464,"ARG_OF_PERICENTER":75.5448,"MEAN_ANOMALY":284.728,"EPHEMERIS_TYPE":0,"CLASSIFICATION_TYPE":"U","NORAD_CAT_ID":67768,"ELEMENT_SET_NO":999,"REV_AT_EPOCH":512,"BSTAR":0.011360708,"MEAN_MOTION_DOT":0.00373574,"MEAN_MOTION_DDOT":0}]
